[{"OBJECT_NAME":"YUNHAI-1 01","OBJECT_ID":"2016-068A","EPOCH":"2026-03-09T23:53:51.242208","MEAN_MOTION":14.3266794,"ECCENTRICITY":0.00048409,"INCLINATION":98.5892,"RA_OF_ASC_NODE":80.9046,"ARG_OF_PERICENTER":339.8191,"MEAN_ANOMALY":20.2801,"EPHEMERIS_TYPE":0,"CLASSIFICATION_TYPE":"U","NORAD_CAT_ID":41857,"ELEMENT_SET_NO":999,"REV_AT_EPOCH":48762,"BSTAR":0.00014397496,"MEAN_MOTION_DOT":3.47e-6,"MEAN_MOTION_DDOT":0},{"OBJECT_NAME":"COSMOS 1741","OBJECT_ID":"1986-030A","EPOCH":"2026-03-09T20:41:18.108960","MEAN_MOTION":14.33902623,"ECCENTRICITY":0.00187579,"INCLINATION":74.0223,"RA_OF_ASC_NODE":229.5525,"ARG_OF_PERICENTER":179.1386,"MEAN_ANOMALY":180.9802,"EPHEMERIS_TYPE":0,"CLASSIFICATION_TYPE":"U","NORAD_CAT_ID":16681,"ELEMENT_SET_NO":999,"REV_AT_EPOCH":8497,"BSTAR":9.7906822e-5,"MEAN_MOTION_DOT":2.47e-6,"MEAN_MOTION_DDOT":0}]
